NORAD_CAT_ID,OBJECT_NAME,OBJECT_TYPE,EPOCH,MEAN_MOTION,ECCENTRICITY,INCLINATION,RA_OF_ASC_NODE,ARG_OF_PERICENTER,MEAN_ANOMALY,BSTAR,MEAN_MOTION_DOT,MEAN_MOTION_DDOT,TLE_LINE0,TLE_LINE1,TLE_LINE2,SEMIMAJOR_AXIS,PERIOD,APOGEE,PERIGEE,DECAYED
49771.0,STARLINK-3201,PAYLOAD,2021-12-31 21:25:06,15.40460345,0.0001715,53.2159,180.9362,44.5326,315.5817,-2.8476e-05,-1.574e-05,0.0,0 STARLINK-3201,1 49771U 21115AZ  21365.89244098 -.00001574  00000-0 -28476-4 0  9999,2 49771  53.2159 180.9362 0001715  44.5326 315.5817 15.40460345  4615,6822.887,93.479,445.922,443.582,0.0
49771.0,STARLINK-3201,PAYLOAD,2022-01-01 11:25:56,15.40465275,0.0001706999999999,53.2174,178.1851,41.0108,319.1026,-4.6655000000000005e-06,-5.95e-06,0.0,0 STARLINK-3201,1 49771U 21115AZ  22001.47635412 -.00000595  00000-0 -46655-5 0  9997,2 49771  53.2174 178.1851 0001707  41.0108 319.1026 15.40465275  5817,6822.871999999999,93.478,445.902,443.572,0.0
49771.0,STARLINK-3201,PAYLOAD,2022-01-01 14:00:01,15.40481288,0.0001846,53.2155,177.6813,45.6876,188.1528,-0.00035227,-0.00014872,0.0,0 STARLINK-3201,1 49771U 21115AZ  22001.58335648 -.00014872  00000-0 -35227-3 0  9991,2 49771  53.2155 177.6813 0001846  45.6876 188.1528 15.40481288  3613,6822.825,93.477,445.949,443.43,0.0
49771.0,STARLINK-3201,PAYLOAD,2022-01-01 22:00:00,15.40456481,0.000204,53.2154,176.1121,39.3826,244.0095,0.00094174,0.00038514,0.0,0 STARLINK-3201,1 49771U 21115AZ  22001.91667824  .00038514  00000-0  94174-3 0  9995,2 49771  53.2154 176.1121 0002040  39.3826 244.0095 15.40456481  3630,6822.898,93.479,446.155,443.371,0.0
49771.0,STARLINK-3201,PAYLOAD,2022-01-02 14:00:01,15.40483042,0.0001848,53.2153,172.9697,42.2597,340.331,-0.00058384,-0.00024354,0.0,0 STARLINK-3201,1 49771U 21115AZ  22002.58334491 -.00024354  00000-0 -58384-3 0  9992,2 49771  53.2153 172.9697 0001848  42.2597 340.3310 15.40483042  5987,6822.82,93.477,445.946,443.424,0.0
49771.0,STARLINK-3201,PAYLOAD,2022-01-02 22:00:00,15.40453671,0.0001994,53.2149,171.4005,36.7225,35.4759,0.00013094,4.983e-05,0.0,0 STARLINK-3201,1 49771U 21115AZ  22002.91667824  .00004983  00000-0  13094-3 0  9991,2 49771  53.2149 171.4005 0001994  36.7225  35.4759 15.40453671  3642,6822.906,93.479,446.132,443.411,0.0
49771.0,STARLINK-3201,PAYLOAD,2022-01-03 12:00:00,15.40465612,0.000176,53.2151,168.6503,42.4108,26.5558,0.00017156,6.659e-05,0.0,0 STARLINK-3201,1 49771U 21115AZ  22003.50001157  .00006659  00000-0  17156-3 0  9993,2 49771  53.2151 168.6503 0001760  42.4108  26.5558 15.40465612  6123,6822.871,93.478,445.937,443.535,0.0
49771.0,STARLINK-3201,PAYLOAD,2022-01-03 14:00:01,15.40476204,0.0001801,53.2152,168.2582,40.6061,130.757,-0.00040409,-0.00016992,0.0,0 STARLINK-3201,1 49771U 21115AZ  22003.58334491 -.00016992  00000-0 -40409-3 0  9991,2 49771  53.2152 168.2582 0001801  40.6061 130.7570 15.40476204  3635,6822.84,93.478,445.934,443.476,0.0
49771.0,STARLINK-3201,PAYLOAD,2022-01-03 22:00:00,15.40458731,0.0001927,53.215,166.68900000000005,34.9044,186.0601,0.00037937,0.00015227,0.0,0 STARLINK-3201,1 49771U 21115AZ  22003.91667824  .00015227  00000-0  37937-3 0  9997,2 49771  53.2150 166.6890 0001927  34.9044 186.0601 15.40458731  3637,6822.891,93.479,446.071,443.442,0.0
49771.0,STARLINK-3201,PAYLOAD,2022-01-04 10:00:00,15.40446473,0.0001671,53.2155,164.331,40.3925,74.9599,0.00082658,0.00033722,0.0,0 STARLINK-3201,1 49771U 21115AZ  22004.41667824  .00033722  00000-0  82658-3 0  9993,2 49771  53.2155 164.3310 0001671  40.3925  74.9599 15.40446473  6262,6822.928000000001,93.479,445.9330000000001,443.653,0.0
49771.0,STARLINK-3201,PAYLOAD,2022-01-04 14:00:01,15.40480426,0.0001726,53.2156,163.5468,36.4314,283.7059,-0.00077414,-0.00032125,0.0,0 STARLINK-3201,1 49771U 21115AZ  22004.58334491 -.00032125  00000-0 -77414-3 0  9994,2 49771  53.2156 163.5468 0001726  36.4314 283.7059 15.40480426  3610,6822.8269999999975,93.477,445.87,443.515,0.0
49771.0,STARLINK-3201,PAYLOAD,2022-01-04 18:50:40,15.40463418,0.0001826,53.2177,162.5953,42.7578,317.3569,1.1831e-05,8.3e-07,0.0,0 STARLINK-3201,1 49771U 21115AZ  22004.78518648  .00000083  00000-0  11831-4 0  9992,2 49771  53.2177 162.5953 0001826  42.7578 317.3569 15.40463418  5214,6822.878000000002,93.478,445.98800000000006,443.497,0.0
49771.0,STARLINK-3201,PAYLOAD,2022-01-04 22:00:00,15.40440705,0.0001877,53.2156,161.9774,29.8806,339.8604,0.00051871,0.00020972,0.0,0 STARLINK-3201,1 49771U 21115AZ  22004.91667824  .00020972  00000-0  51871-3 0  9994,2 49771  53.2156 161.9774 0001877  29.8806 339.8604 15.40440705  6349,6822.945,93.48,446.09,443.529,0.0
49771.0,STARLINK-3201,PAYLOAD,2022-01-05 14:00:01,15.40488665,0.0001771,53.2163,158.8354,32.8054,76.084,-0.001603,-0.0006582,0.0,0 STARLINK-3201,1 49771U 21115AZ  22005.58334491 -.00065820  00000-0 -16030-2 0  9999,2 49771  53.2163 158.8354 0001771  32.8054  76.0840 15.40488665  3647,6822.803000000001,93.477,445.876,443.46,0.0
49771.0,STARLINK-3201,PAYLOAD,2022-01-05 22:00:00,15.40429147,0.0001919,53.2164,157.266,27.1741,131.3127,0.00099758,0.00040796,0.0,0 STARLINK-3201,1 49771U 21115AZ  22005.91667824  .00040796  00000-0  99758-3 0  9997,2 49771  53.2164 157.2660 0001919  27.1741 131.3127 15.40429147  6494,6822.979,93.48,446.153,443.534,0.0
49771.0,STARLINK-3201,PAYLOAD,2022-01-06 14:00:01,15.4047463,0.0001899,53.217,154.1243,31.6722,225.961,-0.00041547,-0.00017458,0.0,0 STARLINK-3201,1 49771U 21115AZ  22006.58334491 -.00017458  00000-0 -41547-3 0  9996,2 49771  53.2170 154.1243 0001899  31.6722 225.9610 15.40474630  6595,6822.845,93.478,446.005,443.414,0.0
49771.0,STARLINK-3201,PAYLOAD,2022-01-06 22:00:00,15.40470198,0.0002077,53.2168,152.5544,28.3677,278.863,-0.00043493,-0.00018253,0.0,0 STARLINK-3201,1 49771U 21115AZ  22006.91667824 -.00018253  00000-0 -43493-3 0  9998,2 49771  53.2168 152.5544 0002077  28.3677 278.8630 15.40470198  3613,6822.858,93.478,446.14,443.305,0.0
49771.0,STARLINK-3201,PAYLOAD,2022-01-07 14:00:01,15.40476865,0.0002103,53.2169,149.41299999999995,33.7905,12.6118,-0.00058708,-0.00024482,0.0,0 STARLINK-3201,1 49771U 21115AZ  22007.58334491 -.00024482  00000-0 -58708-3 0  9999,2 49771  53.2169 149.4130 0002103  33.7905  12.6118 15.40476865  6754,6822.8380000000025,93.478,446.138,443.268,0.0
49771.0,STARLINK-3201,PAYLOAD,2022-01-07 22:00:00,15.40477285,0.000223,53.2164,147.8429,29.8671,66.1296,-0.00056695,-0.0002366,0.0,0 STARLINK-3201,1 49771U 21115AZ  22007.91667824 -.00023660  00000-0 -56695-3 0  9995,2 49771  53.2164 147.8429 0002230  29.8671  66.1296 15.40477285  3631,6822.837,93.478,446.223,443.18,0.0
49771.0,STARLINK-3201,PAYLOAD,2022-01-08 14:00:01,15.40473938,0.0002135,53.2162,144.7017,31.7024,163.4835,-0.00030383,-0.00012883,0.0,0 STARLINK-3201,1 49771U 21115AZ  22008.58334491 -.00012883  00000-0 -30383-3 0  9991,2 49771  53.2162 144.7017 0002135  31.7024 163.4835 15.40473938  6900,6822.847,93.478,446.168,443.255,0.0
49771.0,STARLINK-3201,PAYLOAD,2022-01-08 22:00:00,15.40488132,0.0002181,53.2156,143.1315,28.7822,215.9968,-0.00097782,-0.0004044,0.0,0 STARLINK-3201,1 49771U 21115AZ  22008.91667824 -.00040440  00000-0 -97782-3 0  9993,2 49771  53.2156 143.1315 0002181  28.7822 215.9968 15.40488132  3639,6822.805,93.477,446.158,443.182,0.0
49771.0,STARLINK-3201,PAYLOAD,2022-01-09 14:00:01,15.40510845,0.0002118,53.2156,139.9901,28.7668,315.2381,-0.00071072,-0.00029567,0.0,0 STARLINK-3201,1 49771U 21115AZ  22009.58334491 -.00029567  00000-0 -71072-3 0  9999,2 49771  53.2156 139.9901 0002118  28.7668 315.2381 15.40510845  7062,6822.738,93.475,446.048,443.158,0.0
49771.0,STARLINK-3201,PAYLOAD,2022-01-09 22:00:00,15.40509556,0.0002206,53.2153,138.4196,25.8101,7.8367,-0.00084829,-0.00035185,0.0,0 STARLINK-3201,1 49771U 21115AZ  22009.91667824 -.00035185  00000-0 -84829-3 0  9992,2 49771  53.2153 138.4196 0002206  25.8101   7.8367 15.40509556  3631,6822.741,93.476,446.111,443.101,0.0
49771.0,STARLINK-3201,PAYLOAD,2022-01-10 14:00:01,15.40473589,0.0002193,53.2156,135.2783,28.4091,104.4703,-0.0020198,-0.00082612,0.0,0 STARLINK-3201,1 49771U 21115AZ  22010.58334491 -.00082612  00000-0 -20198-2 0  9993,2 49771  53.2156 135.2783 0002193  28.4091 104.4703 15.40473589  3637,6822.848000000001,93.478,446.209,443.216,0.0
49771.0,STARLINK-3201,PAYLOAD,2022-01-10 22:00:00,15.40435091,0.0002229,53.2157,133.7078,25.6651,156.7772,-0.0011632,-0.00047901,0.0,0 STARLINK-3201,1 49771U 21115AZ  22010.91667824 -.00047901  00000-0 -11632-2 0  9994,2 49771  53.2157 133.7078 0002229  25.6651 156.7772 15.40435091  7264,6822.9609999999975,93.48,446.347,443.305,0.0
49771.0,STARLINK-3201,PAYLOAD,2022-01-11 14:00:01,15.40430711,0.0002295,53.2161,130.5669,26.4031,255.1161,0.00025981,0.00010284,0.0,0 STARLINK-3201,1 49771U 21115AZ  22011.58334491  .00010284  00000-0  25981-3 0  9994,2 49771  53.2161 130.5669 0002295  26.4031 255.1161 15.40430711  7376,6822.974,93.48,446.405,443.273,0.0
49771.0,STARLINK-3201,PAYLOAD,2022-01-11 22:00:00,15.40460948,0.0002341,53.2163,128.9962,24.1084,306.9613,2.5578e-05,6.48e-06,0.0,0 STARLINK-3201,1 49771U 21115AZ  22011.91667824  .00000648  00000-0  25578-4 0  9996,2 49771  53.2163 128.9962 0002341  24.1084 306.9613 15.40460948  3626,6822.885,93.479,446.347,443.153,0.0
49771.0,STARLINK-3201,PAYLOAD,2022-01-12 14:00:01,15.40469863,0.0002389,53.2167,125.8554,23.1488,47.118,-0.00080403,-0.00033336,0.0,0 STARLINK-3201,1 49771U 21115AZ  22012.58334491 -.00033336  00000-0 -80403-3 0  9990,2 49771  53.2167 125.8554 0002389  23.1488  47.1180 15.40469863  3653,6822.859,93.478,446.354,443.094,0.0
49771.0,STARLINK-3201,PAYLOAD,2022-01-12 16:00:00,15.40439119,0.0002464,53.2168,125.463,22.1122,150.5604,0.00071857,0.00029239,0.0,0 STARLINK-3201,1 49771U 21115AZ  22012.66667824  .00029239  00000-0  71857-3 0  9996,2 49771  53.2168 125.4630 0002464  22.1122 150.5604 15.40439119  7535,6822.949000000001,93.48,446.496,443.133,0.0
